[{"OBJECT_NAME":"STARLINK-6343","OBJECT_ID":"2023-099AL","EPOCH":"2026-02-16T06:29:24.771840","MEAN_MOTION":15.02537167,"ECCENTRICITY":0.0001231,"INCLINATION":43.005,"RA_OF_ASC_NODE":352.4081,"ARG_OF_PERICENTER":269.0409,"MEAN_ANOMALY":91.0292,"EPHEMERIS_TYPE":0,"CLASSIFICATION_TYPE":"U","NORAD_CAT_ID":57362,"ELEMENT_SET_NO":999,"REV_AT_EPOCH":14304,"BSTAR":6.612e-5,"MEAN_MOTION_DOT":6.9e-6,"MEAN_MOTION_DDOT":0},{"OBJECT_NAME":"STARLINK-6356","OBJECT_ID":"2023-099AM","EPOCH":"2026-02-16T06:38:59.810496","MEAN_MOTION":15.02536556,"ECCENTRICITY":0.0001169,"INCLINATION":43.0058,"RA_OF_ASC_NODE":352.4585,"ARG_OF_PERICENTER":273.6193,"MEAN_ANOMALY":86.4516,"EPHEMERIS_TYPE":0,"CLASSIFICATION_TYPE":"U","NORAD_CAT_ID":57363,"ELEMENT_SET_NO":999,"REV_AT_EPOCH":14304,"BSTAR":0.00016935,"MEAN_MOTION_DOT":2.085e-5,"MEAN_MOTION_DDOT":0},{"OBJECT_NAME":"STARLINK-6338","OBJECT_ID":"2023-099AN","EPOCH":"2026-02-16T04:52:05.325888","MEAN_MOTION":15.0253783,"ECCENTRICITY":0.0001083,"INCLINATION":43.0042,"RA_OF_ASC_NODE":352.7594,"ARG_OF_PERICENTER":264.8363,"MEAN_ANOMALY":95.2355,"EPHEMERIS_TYPE":0,"CLASSIFICATION_TYPE":"U","NORAD_CAT_ID":57364,"ELEMENT_SET_NO":999,"REV_AT_EPOCH":14303,"BSTAR":-2.8918e-6,"MEAN_MOTION_DOT":-2.43e-6,"MEAN_MOTION_DDOT":0},{"OBJECT_NAME":"STARLINK-5007","OBJECT_ID":"2023-099AP","EPOCH":"2026-02-16T04:37:42.345408","MEAN_MOTION":15.02534861,"ECCENTRICITY":0.0001367,"INCLINATION":43.0059,"RA_OF_ASC_NODE":352.6807,"ARG_OF_PERICENTER":264.5954,"MEAN_ANOMALY":95.4732,"EPHEMERIS_TYPE":0,"CLASSIFICATION_TYPE":"U","NORAD_CAT_ID":57365,"ELEMENT_SET_NO":999,"REV_AT_EPOCH":14303,"BSTAR":7.1524e-5,"MEAN_MOTION_DOT":7.63e-6,"MEAN_MOTION_DDOT":0},{"OBJECT_NAME":"STARLINK-6174","OBJECT_ID":"2023-099AQ","EPOCH":"2026-02-16T06:18:13.498272","MEAN_MOTION":15.02536459,"ECCENTRICITY":0.0001335,"INCLINATION":43.0051,"RA_OF_ASC_NODE":352.3492,"ARG_OF_PERICENTER":262.6388,"MEAN_ANOMALY":97.4302,"EPHEMERIS_TYPE":0,"CLASSIFICATION_TYPE":"U","NORAD_CAT_ID":57366,"ELEMENT_SET_NO":999,"REV_AT_EPOCH":14304,"BSTAR":4.2014e-5,"MEAN_MOTION_DOT":3.64e-6,"MEAN_MOTION_DDOT":0},{"OBJECT_NAME":"STARLINK-6215","OBJECT_ID":"2023-099AR","EPOCH":"2026-02-16T18:54:49.529664","MEAN_MOTION":15.02538358,"ECCENTRICITY":0.0002124,"INCLINATION":43.0067,"RA_OF_ASC_NODE":336.3763,"ARG_OF_PERICENTER":257.3719,"MEAN_ANOMALY":102.6886,"EPHEMERIS_TYPE":0,"CLASSIFICATION_TYPE":"U","NORAD_CAT_ID":57367,"ELEMENT_SET_NO":999,"REV_AT_EPOCH":14402,"BSTAR":2.5162e-5,"MEAN_MOTION_DOT":1.36e-6,"MEAN_MOTION_DDOT":0},{"OBJECT_NAME":"STARLINK-6218","OBJECT_ID":"2023-099AS","EPOCH":"2026-02-16T20:31:47.986464","MEAN_MOTION":15.02545141,"ECCENTRICITY":0.0001176,"INCLINATION":43.0059,"RA_OF_ASC_NODE":349.0515,"ARG_OF_PERICENTER":271.9449,"MEAN_ANOMALY":88.1259,"EPHEMERIS_TYPE":0,"CLASSIFICATION_TYPE":"U","NORAD_CAT_ID":57368,"ELEMENT_SET_NO":999,"REV_AT_EPOCH":14313,"BSTAR":0.00016176,"MEAN_MOTION_DOT":1.983e-5,"MEAN_MOTION_DDOT":0},{"OBJECT_NAME":"STARLINK-6168","OBJECT_ID":"2023-099AT","EPOCH":"2026-02-16T04:47:17.884320","MEAN_MOTION":15.02535719,"ECCENTRICITY":0.0001387,"INCLINATION":43.0046,"RA_OF_ASC_NODE":352.7378,"ARG_OF_PERICENTER":268.7277,"MEAN_ANOMALY":91.3407,"EPHEMERIS_TYPE":0,"CLASSIFICATION_TYPE":"U","NORAD_CAT_ID":57369,"ELEMENT_SET_NO":999,"REV_AT_EPOCH":14303,"BSTAR":2.0138e-5,"MEAN_MOTION_DOT":6.8e-7,"MEAN_MOTION_DDOT":0},{"OBJECT_NAME":"STARLINK-5353","OBJECT_ID":"2023-099AU","EPOCH":"2026-02-16T06:00:38.222496","MEAN_MOTION":15.02543423,"ECCENTRICITY":0.0001129,"INCLINATION":43.0052,"RA_OF_ASC_NODE":352.2526,"ARG_OF_PERICENTER":275.3235,"MEAN_ANOMALY":84.7478,"EPHEMERIS_TYPE":0,"CLASSIFICATION_TYPE":"U","NORAD_CAT_ID":57370,"ELEMENT_SET_NO":999,"REV_AT_EPOCH":14304,"BSTAR":7.6261e-5,"MEAN_MOTION_DOT":8.27e-6,"MEAN_MOTION_DDOT":0},{"OBJECT_NAME":"STARLINK-6032","OBJECT_ID":"2023-099AV","EPOCH":"2026-02-16T06:19:49.500768","MEAN_MOTION":15.02535074,"ECCENTRICITY":0.0001102,"INCLINATION":43.0042,"RA_OF_ASC_NODE":352.3568,"ARG_OF_PERICENTER":270.7841,"MEAN_ANOMALY":89.2875,"EPHEMERIS_TYPE":0,"CLASSIFICATION_TYPE":"U","NORAD_CAT_ID":57371,"ELEMENT_SET_NO":999,"REV_AT_EPOCH":14304,"BSTAR":4.8772e-5,"MEAN_MOTION_DOT":4.55e-6,"MEAN_MOTION_DDOT":0},{"OBJECT_NAME":"STARLINK-5975","OBJECT_ID":"2023-099AW","EPOCH":"2026-02-16T05:49:26.936832","MEAN_MOTION":15.02543979,"ECCENTRICITY":0.0001289,"INCLINATION":43.0049,"RA_OF_ASC_NODE":352.1866,"ARG_OF_PERICENTER":269.8125,"MEAN_ANOMALY":90.2569,"EPHEMERIS_TYPE":0,"CLASSIFICATION_TYPE":"U","NORAD_CAT_ID":57372,"ELEMENT_SET_NO":999,"REV_AT_EPOCH":14304,"BSTAR":-1.4722e-6,"MEAN_MOTION_DOT":-2.24e-6,"MEAN_MOTION_DDOT":0},{"OBJECT_NAME":"STARLINK-6370","OBJECT_ID":"2023-099AX","EPOCH":"2026-02-16T19:55:11.688960","MEAN_MOTION":15.02535957,"ECCENTRICITY":0.0001604,"INCLINATION":43.0063,"RA_OF_ASC_NODE":349.7115,"ARG_OF_PERICENTER":258.3417,"MEAN_ANOMALY":101.7246,"EPHEMERIS_TYPE":0,"CLASSIFICATION_TYPE":"U","NORAD_CAT_ID":57373,"ELEMENT_SET_NO":999,"REV_AT_EPOCH":14312,"BSTAR":5.4062e-5,"MEAN_MOTION_DOT":5.27e-6,"MEAN_MOTION_DDOT":0},{"OBJECT_NAME":"STARLINK-6369","OBJECT_ID":"2023-099AY","EPOCH":"2026-02-16T19:12:24.783840","MEAN_MOTION":15.02535844,"ECCENTRICITY":0.00018,"INCLINATION":43.0059,"RA_OF_ASC_NODE":336.4902,"ARG_OF_PERICENTER":255.8174,"MEAN_ANOMALY":104.2469,"EPHEMERIS_TYPE":0,"CLASSIFICATION_TYPE":"U","NORAD_CAT_ID":57374,"ELEMENT_SET_NO":999,"REV_AT_EPOCH":14327,"BSTAR":8.3595e-5,"MEAN_MOTION_DOT":9.26e-6,"MEAN_MOTION_DDOT":0},{"OBJECT_NAME":"STARLINK-6363","OBJECT_ID":"2023-099AZ","EPOCH":"2026-02-16T05:59:03.191136","MEAN_MOTION":15.02532884,"ECCENTRICITY":0.0001325,"INCLINATION":43.0056,"RA_OF_ASC_NODE":352.2439,"ARG_OF_PERICENTER":263.1896,"MEAN_ANOMALY":96.8796,"EPHEMERIS_TYPE":0,"CLASSIFICATION_TYPE":"U","NORAD_CAT_ID":57375,"ELEMENT_SET_NO":999,"REV_AT_EPOCH":14304,"BSTAR":5.4739e-5,"MEAN_MOTION_DOT":5.36e-6,"MEAN_MOTION_DDOT":0},{"OBJECT_NAME":"STARLINK-6367","OBJECT_ID":"2023-099BA","EPOCH":"2026-02-16T04:08:56.483808","MEAN_MOTION":15.02537865,"ECCENTRICITY":0.00012492,"INCLINATION":43.005,"RA_OF_ASC_NODE":352.5321,"ARG_OF_PERICENTER":262.6617,"MEAN_ANOMALY":97.4084,"EPHEMERIS_TYPE":0,"CLASSIFICATION_TYPE":"U","NORAD_CAT_ID":57376,"ELEMENT_SET_NO":999,"REV_AT_EPOCH":14303,"BSTAR":0.00069469558,"MEAN_MOTION_DOT":9.193e-5,"MEAN_MOTION_DDOT":0},{"OBJECT_NAME":"STARLINK-6358","OBJECT_ID":"2023-099BB","EPOCH":"2026-02-16T05:51:03.536352","MEAN_MOTION":15.02536676,"ECCENTRICITY":0.0001245,"INCLINATION":43.0064,"RA_OF_ASC_NODE":352.2057,"ARG_OF_PERICENTER":267.8686,"MEAN_ANOMALY":92.2014,"EPHEMERIS_TYPE":0,"CLASSIFICATION_TYPE":"U","NORAD_CAT_ID":57377,"ELEMENT_SET_NO":999,"REV_AT_EPOCH":14304,"BSTAR":8.9944e-5,"MEAN_MOTION_DOT":1.012e-5,"MEAN_MOTION_DDOT":0},{"OBJECT_NAME":"STARLINK-6364","OBJECT_ID":"2023-099BC","EPOCH":"2026-02-16T04:44:50.241408","MEAN_MOTION":15.02537461,"ECCENTRICITY":8.52e-5,"INCLINATION":43.0039,"RA_OF_ASC_NODE":326.7085,"ARG_OF_PERICENTER":273.0619,"MEAN_ANOMALY":87.0125,"EPHEMERIS_TYPE":0,"CLASSIFICATION_TYPE":"U","NORAD_CAT_ID":57378,"ELEMENT_SET_NO":999,"REV_AT_EPOCH":14407,"BSTAR":8.3931e-5,"MEAN_MOTION_DOT":9.3e-6,"MEAN_MOTION_DDOT":0}]
