STARLINK-6343           
1 57362U 23099AL  26047.27042560  .00000690  00000+0  66120-4 0  9994
2 57362  43.0050 352.4081 0001231 269.0409  91.0292 15.02537167143049
STARLINK-6356           
1 57363U 23099AM  26047.27708114  .00002085  00000+0  16935-3 0  9997
2 57363  43.0058 352.4585 0001169 273.6193  86.4516 15.02536556143046
STARLINK-6338           
1 57364U 23099AN  26047.20283942 -.00000243  00000+0 -28918-5 0  9990
2 57364  43.0042 352.7594 0001083 264.8363  95.2355 15.02537830143033
STARLINK-5007           
1 57365U 23099AP  26047.19285122  .00000763  00000+0  71524-4 0  9996
2 57365  43.0059 352.6807 0001367 264.5954  95.4732 15.02534861143038
STARLINK-6174           
1 57366U 23099AQ  26047.26265623  .00000364  00000+0  42014-4 0  9998
2 57366  43.0051 352.3492 0001335 262.6388  97.4302 15.02536459143044
STARLINK-6215           
1 57367U 23099AR  26047.78807326  .00000136  00000+0  25162-4 0  9990
2 57367  43.0067 336.3763 0002124 257.3719 102.6886 15.02538358144026
STARLINK-6218           
1 57368U 23099AS  26047.85541651  .00001983  00000+0  16176-3 0  9990
2 57368  43.0059 349.0515 0001176 271.9449  88.1259 15.02545141143133
STARLINK-6168           
1 57369U 23099AT  26047.19951255  .00000068  00000+0  20138-4 0  9990
2 57369  43.0046 352.7378 0001387 268.7277  91.3407 15.02535719143035
STARLINK-5353           
1 57370U 23099AU  26047.25044239  .00000827  00000+0  76261-4 0  9995
2 57370  43.0052 352.2526 0001129 275.3235  84.7478 15.02543423143042
STARLINK-6032           
1 57371U 23099AV  26047.26376737  .00000455  00000+0  48772-4 0  9991
2 57371  43.0042 352.3568 0001102 270.7841  89.2875 15.02535074143046
STARLINK-5975           
1 57372U 23099AW  26047.24267288 -.00000224  00000+0 -14722-5 0  9995
2 57372  43.0049 352.1866 0001289 269.8125  90.2569 15.02543979143048
STARLINK-6370           
1 57373U 23099AX  26047.82999640  .00000527  00000+0  54062-4 0  9998
2 57373  43.0063 349.7115 0001604 258.3417 101.7246 15.02535957143128
STARLINK-6369           
1 57374U 23099AY  26047.80028685  .00000926  00000+0  83595-4 0  9995
2 57374  43.0059 336.4902 0001800 255.8174 104.2469 15.02535844143277
STARLINK-6363           
1 57375U 23099AZ  26047.24934249  .00000536  00000+0  54739-4 0  9991
2 57375  43.0056 352.2439 0001325 263.1896  96.8796 15.02532884143046
STARLINK-6367           
1 57376U 23099BA  26047.17287597  .00009193  00000+0  69470-3 0  9996
2 57376  43.0050 352.5321 0001249 262.6617  97.4084 15.02537865143034
STARLINK-6358           
1 57377U 23099BB  26047.24379093  .00001012  00000+0  89944-4 0  9999
2 57377  43.0064 352.2057 0001245 267.8686  92.2014 15.02536676143048
STARLINK-6364           
1 57378U 23099BC  26047.19780372  .00000930  00000+0  83931-4 0  9998
2 57378  43.0039 326.7085 0000852 273.0619  87.0125 15.02537461144078
